$$SOE
2460154.500000000, A.D. 2023-Jul-29 00:00:00.0000, -1.486003827247314E+07, 4.244354596033202E+08, 2.969456865609047E+07,
2460161.500000000, A.D. 2023-Aug-05 00:00:00.0000, -2.538881067713943E+07, 4.250760764666272E+08, 3.005546574156028E+07,
2460168.500000000, A.D. 2023-Aug-12 00:00:00.0000, -3.590172581254802E+07, 4.254514240414594E+08, 3.039760425207174E+07,
2460175.500000000, A.D. 2023-Aug-19 00:00:00.0000, -4.639240783364789E+07, 4.255634027794781E+08, 3.072092357399610E+07,
2460182.500000000, A.D. 2023-Aug-26 00:00:00.0000, -5.685459527716510E+07, 4.254140371362647E+08, 3.102537509415242E+07,
2460189.500000000, A.D. 2023-Sep-02 00:00:00.0000, -6.728214150429498E+07, 4.250054701860977E+08, 3.131092184117776E+07,
2460196.500000000, A.D. 2023-Sep-09 00:00:00.0000, -7.766901493830283E+07, 4.243399582938450E+08, 3.157753812147817E+07,
2460203.500000000, A.D. 2023-Sep-16 00:00:00.0000, -8.800929894303678E+07, 4.234198657873521E+08, 3.182520913017178E+07,
2460210.500000000, A.D. 2023-Sep-23 00:00:00.0000, -9.829719094016346E+07, 4.222476599179369E+08, 3.205393052285191E+07,
2460217.500000000, A.D. 2023-Sep-30 00:00:00.0000, -1.085270011186612E+08, 4.208259073010765E+08, 3.226370807724875E+07,
2460224.500000000, A.D. 2023-Oct-07 00:00:00.0000, -1.186931531021419E+08, 4.191572712957594E+08, 3.245455761679515E+07,
2460231.500000000, A.D. 2023-Oct-14 00:00:00.0000, -1.287901855444310E+08, 4.172445070058684E+08, 3.262650483019590E+07,
2460238.500000000, A.D. 2023-Oct-21 00:00:00.0000, -1.388127514386266E+08, 4.150904555030965E+08, 3.277958482245255E+07,
2460245.500000000, A.D. 2023-Oct-28 00:00:00.0000, -1.487556165765089E+08, 4.126980395333745E+08, 3.291384171341556E+07,
2460252.500000000, A.D. 2023-Nov-04 00:00:00.0000, -1.586136584171091E+08, 4.100702599359405E+08, 3.302932833591524E+07,
2460259.500000000, A.D. 2023-Nov-11 00:00:00.0000, -1.683818651950873E+08, 4.072101921719264E+08, 3.312610596836326E+07,
2460266.500000000, A.D. 2023-Nov-18 00:00:00.0000, -1.780553350573491E+08, 4.041209828939366E+08, 3.320424407652742E+07,
2460273.500000000, A.D. 2023-Nov-25 00:00:00.0000, -1.876292751628604E+08, 4.008058465739099E+08, 3.326382005962524E+07,
2460280.500000000, A.D. 2023-Dec-02 00:00:00.0000, -1.970990007260019E+08, 3.972680621722620E+08, 3.330491899725324E+07,
2460287.500000000, A.D. 2023-Dec-09 00:00:00.0000, -2.064599339351911E+08, 3.935109697844872E+08, 3.332763338540053E+07,
2460294.500000000, A.D. 2023-Dec-16 00:00:00.0000, -2.157076024689513E+08, 3.895379672746977E+08, 3.333206283655167E+07,
2460301.500000000, A.D. 2023-Dec-23 00:00:00.0000, -2.248376372698512E+08, 3.853525075819666E+08, 3.331831376841941E+07,
2460308.500000000, A.D. 2023-Dec-30 00:00:00.0000, -2.338457709241986E+08, 3.809580977483506E+08, 3.328649929012047E+07,
2460315.500000000, A.D. 2024-Jan-06 00:00:00.0000, -2.427278384245667E+08, 3.763582973072551E+08, 3.323673925520439E+07,
2460322.500000000, A.D. 2024-Jan-13 00:00:00.0000, -2.514797771443495E+08, 3.715567142196633E+08, 3.316916004223755E+07,
2460329.500000000, A.D. 2024-Jan-20 00:00:00.0000, -2.600976248059873E+08, 3.665570014360120E+08, 3.308389420225413E+07,
2460336.500000000, A.D. 2024-Jan-27 00:00:00.0000, -2.685775174774764E+08, 3.613628547327394E+08, 3.298108021197683E+07,
2460343.500000000, A.D. 2024-Feb-03 00:00:00.0000, -2.769156880290853E+08, 3.559780108707744E+08, 3.286086229396293E+07,
2460350.500000000, A.D. 2024-Feb-10 00:00:00.0000, -2.851084647765639E+08, 3.504062457792274E+08, 3.272339025388075E+07,
2460357.500000000, A.D. 2024-Feb-17 00:00:00.0000, -2.931522701765866E+08, 3.446513727669343E+08, 3.256881932245317E+07,
2460364.500000000, A.D. 2024-Feb-24 00:00:00.0000, -3.010436195431581E+08, 3.387172407722489E+08, 3.239730999974795E+07,
2460371.500000000, A.D. 2024-Mar-02 00:00:00.0000, -3.087791197600394E+08, 3.326077326149043E+08, 3.220902789635414E+07,
2460378.500000000, A.D. 2024-Mar-09 00:00:00.0000, -3.163554678542090E+08, 3.263267631838323E+08, 3.200414355349855E+07,
2460385.500000000, A.D. 2024-Mar-16 00:00:00.0000, -3.237694490382431E+08, 3.198782777549179E+08, 3.178283222187755E+07,
2460392.500000000, A.D. 2024-Mar-23 00:00:00.0000, -3.310179343282855E+08, 3.132662515443077E+08, 3.154527369920976E+07,
2460399.500000000, A.D. 2024-Mar-30 00:00:00.0000, -3.380978799823755E+08, 3.064946904679070E+08, 3.129165242975882E+07,
2460406.500000000, A.D. 2024-Apr-06 00:00:00.0000, -3.450063285049948E+08, 2.995676297376605E+08, 3.102215756694001E+07,
2460413.500000000, A.D. 2024-Apr-13 00:00:00.0000, -3.517404076660923E+08, 2.924891311261917E+08, 3.073698274134384E+07,
2460420.500000000, A.D. 2024-Apr-20 00:00:00.0000, -3.582973284891016E+08, 2.852632815707972E+08, 3.043632584004030E+07,
2460427.500000000, A.D. 2024-Apr-27 00:00:00.0000, -3.646743837286816E+08, 2.778941925528534E+08, 3.012038889032052E+07,
2460434.500000000, A.D. 2024-May-04 00:00:00.0000, -3.708689467520331E+08, 2.703859995469859E+08, 2.978937798221007E+07,
2460441.500000000, A.D. 2024-May-11 00:00:00.0000, -3.768784705865457E+08, 2.627428614350430E+08, 2.944350319947234E+07,
2460448.500000000, A.D. 2024-May-18 00:00:00.0000, -3.827004870531268E+08, 2.549689599032618E+08, 2.908297855330272E+07,
2460455.500000000, A.D. 2024-May-25 00:00:00.0000, -3.883326059619437E+08, 2.470684988125135E+08, 2.870802191587099E+07,
2460462.500000000, A.D. 2024-Jun-01 00:00:00.0000, -3.937725143121437E+08, 2.390457034813913E+08, 2.831885494358228E+07,
2460469.500000000, A.D. 2024-Jun-08 00:00:00.0000, -3.990179752504680E+08, 2.309048198564182E+08, 2.791570296567306E+07,
2460476.500000000, A.D. 2024-Jun-15 00:00:00.0000, -4.040668263904312E+08, 2.226501141115606E+08, 2.749879484615120E+07,
2460483.500000000, A.D. 2024-Jun-22 00:00:00.0000, -4.089169784990326E+08, 2.142858738491949E+08, 2.706836300743540E+07,
2460490.500000000, A.D. 2024-Jun-29 00:00:00.0000, -4.135664166755980E+08, 2.058164090798214E+08, 2.662464366163160E+07,
2460497.500000000, A.D. 2024-Jul-06 00:00:00.0000, -4.180132013791240E+08, 1.972460505087969E+08, 2.616787680501425E+07,
2460504.500000000, A.D. 2024-Jul-13 00:00:00.0000, -4.222554673533785E+08, 1.885791479516141E+08, 2.569830602769266E+07,
2460511.500000000, A.D. 2024-Jul-20 00:00:00.0000, -4.262914224357235E+08, 1.798200700227958E+08, 2.521617841431548E+07,
2460518.500000000, A.D. 2024-Jul-27 00:00:00.0000, -4.301193469068195E+08, 1.709732041370504E+08, 2.472174451734471E+07,
2460525.500000000, A.D. 2024-Aug-03 00:00:00.0000, -4.337375931075835E+08, 1.620429564457066E+08, 2.421525834692483E+07,
2460532.500000000, A.D. 2024-Aug-10 00:00:00.0000, -4.371445851565499E+08, 1.530337517004640E+08, 2.369697736143205E+07,
2460539.500000000, A.D. 2024-Aug-17 00:00:00.0000, -4.403388187207097E+08, 1.439500330621428E+08, 2.316716245582297E+07,
2460546.500000000, A.D. 2024-Aug-24 00:00:00.0000, -4.433188608140810E+08, 1.347962618289450E+08, 2.262607794312677E+07,
2460553.500000000, A.D. 2024-Aug-31 00:00:00.0000, -4.460833495110711E+08, 1.255769170208650E+08, 2.207399151316726E+07,
2460560.500000000, A.D. 2024-Sep-07 00:00:00.0000, -4.486309932111251E+08, 1.162964949456275E+08, 2.151117414498103E+07,
2460567.500000000, A.D. 2024-Sep-14 00:00:00.0000, -4.509605693702149E+08, 1.069595097408721E+08, 2.093790004610981E+07,
2460574.500000000, A.D. 2024-Sep-21 00:00:00.0000, -4.530709247286731E+08, 9.757049530323470E+07, 2.035444683814819E+07,
2460581.500000000, A.D. 2024-Sep-28 00:00:00.0000, -4.549609775246141E+08, 8.813400537497371E+07, 1.976109576911724E+07,
2460588.500000000, A.D. 2024-Oct-05 00:00:00.0000, -4.566297180234584E+08, 7.865461178898498E+07, 1.915813161596121E+07,
2460595.500000000, A.D. 2024-Oct-12 00:00:00.0000, -4.580762077220184E+08, 6.913690384984256E+07, 1.854584255355715E+07,
2460602.500000000, A.D. 2024-Oct-19 00:00:00.0000, -4.592995789778984E+08, 5.958548857617339E+07, 1.792452012842724E+07,
2460609.500000000, A.D. 2024-Oct-26 00:00:00.0000, -4.602990350983107E+08, 5.000499100026491E+07, 1.729445927441505E+07,
2460616.500000000, A.D. 2024-Nov-02 00:00:00.0000, -4.610738506320566E+08, 4.040005437473601E+07, 1.665595833446691E+07,
2460623.500000000, A.D. 2024-Nov-09 00:00:00.0000, -4.616233717683547E+08, 3.077534030504561E+07, 1.600931908124926E+07,
2460630.500000000, A.D. 2024-Nov-16 00:00:00.0000, -4.619470168167629E+08, 2.113552880589142E+07, 1.535484673415091E+07,
2460637.500000000, A.D. 2024-Nov-23 00:00:00.0000, -4.620442767215085E+08, 1.148531822927926E+07, 1.469284996419847E+07,
2460644.500000000, A.D. 2024-Nov-30 00:00:00.0000, -4.619147154022080E+08, 1.829425019278192E+06, 1.402364086422056E+07,
2460651.500000000, A.D. 2024-Dec-07 00:00:00.0000, -4.615579695016412E+08, -7.827416288313590E+06, 1.334753488010902E+07,
2460658.500000000, A.D. 2024-Dec-14 00:00:00.0000, -4.609737482290606E+08, -1.748045160014557E+07, 1.266485086630864E+07,
2460665.500000000, A.D. 2024-Dec-21 00:00:00.0000, -4.601618356182443E+08, -2.712490557747459E+07, 1.197591137671277E+07,
2460672.500000000, A.D. 2024-Dec-28 00:00:00.0000, -4.591220932299939E+08, -3.675598269651108E+07, 1.128104276751013E+07,
2460679.500000000, A.D. 2025-Jan-04 00:00:00.0000, -4.578544607025145E+08, -4.636886868233670E+07, 1.058057506807180E+07,
2460686.500000000, A.D. 2025-Jan-11 00:00:00.0000, -4.563589559692302E+08, -5.595873065904628E+07, 9.874841922688197E+06,
2460693.500000000, A.D. 2025-Jan-18 00:00:00.0000, -4.546356760603477E+08, -6.552071693902703E+07, 9.164180612161191E+06,
2460700.500000000, A.D. 2025-Jan-25 00:00:00.0000, -4.526847982457546E+08, -7.504995692986432E+07, 8.448932094114214E+06,
2460707.500000000, A.D. 2025-Feb-01 00:00:00.0000, -4.505065813307692E+08, -8.454156119225949E+07, 7.729441042221129E+06,
2460714.500000000, A.D. 2025-Feb-08 00:00:00.0000, -4.481013670466944E+08, -9.399062163253228E+07, 7.006055880648095E+06,
2460721.500000000, A.D. 2025-Feb-15 00:00:00.0000, -4.454695815074804E+08, -1.033922118533105E+08, 6.279128809416994E+06,
$$EOE